NORAD_CAT_ID,OBJECT_NAME,OBJECT_TYPE,EPOCH,MEAN_MOTION,ECCENTRICITY,INCLINATION,RA_OF_ASC_NODE,ARG_OF_PERICENTER,MEAN_ANOMALY,BSTAR,MEAN_MOTION_DOT,MEAN_MOTION_DDOT,TLE_LINE0,TLE_LINE1,TLE_LINE2,SEMIMAJOR_AXIS,PERIOD,APOGEE,PERIGEE,DECAYED
52687.0,STARLINK-3981,PAYLOAD,2023-08-24 12:04:31,15.08840923,0.0001268,53.2187,350.9132,91.2024,268.9113,5.5333e-05,5.93e-06,0.0,0 STARLINK-3981,1 52687U 22053AH  23236.50314545  .00000593  00000-0  55333-4 0  9993,2 52687  53.2187 350.9132 0001268  91.2024 268.9113 15.08840923 70999,6917.878,95.437,540.62,538.865,0.0
52687.0,STARLINK-3981,PAYLOAD,2023-08-25 07:09:09,15.08841747,0.0001204,53.2186,347.345,89.0476,271.0654,2.6466e-05,1.33e-06,0.0,0 STARLINK-3981,1 52687U 22053AH  23237.29802583  .00000133  00000-0  26466-4 0  9999,2 52687  53.2186 347.3450 0001204  89.0476 271.0654 15.08841747 70740,6917.875,95.437,540.573,538.907,0.0
52687.0,STARLINK-3981,PAYLOAD,2023-08-25 13:30:41,15.0884501,0.000129,53.2188,346.1558,90.974,269.14,5.0498e-05,5.16e-06,0.0,0 STARLINK-3981,1 52687U 22053AH  23237.56298254  .00000516  00000-0  50498-4 0  9990,2 52687  53.2188 346.1558 0001290  90.9740 269.1400 15.08845010 71158,6917.865,95.437,540.622,538.838,0.0
52687.0,STARLINK-3981,PAYLOAD,2023-08-25 15:06:04,15.0884726,0.0001223,53.2186,345.8583,87.3143,272.7989,6.6491e-05,7.71e-06,0.0,0 STARLINK-3981,1 52687U 22053AH  23237.62922050  .00000771  00000-0  66491-4 0  9998,2 52687  53.2186 345.8583 0001223  87.3143 272.7989 15.08847260 71165,6917.858,95.437,540.569,538.877,0.0
52687.0,STARLINK-3981,PAYLOAD,2023-08-26 11:46:06,15.08837312,0.0001337,53.2188,341.9932,84.5584,275.5561,3.8758e-05,3.29e-06,0.0,0 STARLINK-3981,1 52687U 22053AH  23238.49034822  .00000329  00000-0  38758-4 0  9999,2 52687  53.2188 341.9932 0001337  84.5584 275.5561 15.08837312 71294,6917.889,95.438,540.679,538.829,0.0
52687.0,STARLINK-3981,PAYLOAD,2023-08-26 14:56:51,15.08842767,0.0001428,53.2193,341.3982,86.6169,273.4986,9.0785e-05,1.157e-05,0.0,0 STARLINK-3981,1 52687U 22053AH  23238.62282372  .00001157  00000-0  90785-4 0  9997,2 52687  53.2193 341.3982 0001428  86.6169 273.4986 15.08842767 70941,6917.872,95.437,540.725,538.749,0.0
52687.0,STARLINK-3981,PAYLOAD,2023-08-27 10:01:29,15.08842992,0.0001308,53.2173,337.8287,97.5307,262.5834,2.8398e-05,1.64e-06,0.0,0 STARLINK-3981,1 52687U 22053AH  23239.41770516  .00000164  00000-0  28398-4 0  9995,2 52687  53.2173 337.8287 0001308  97.5307 262.5834 15.08842992 71435,6917.871,95.437,540.641,538.831,0.0
52687.0,STARLINK-3981,PAYLOAD,2023-08-27 14:47:38,15.08846509,0.0001282,53.2183,336.9356,106.6926,253.4207,2.978e-05,1.86e-06,0.0,0 STARLINK-3981,1 52687U 22053AH  23239.61642205  .00000186  00000-0  29780-4 0  9990,2 52687  53.2183 336.9356 0001282 106.6926 253.4207 15.08846509 71467,6917.86,95.437,540.612,538.839,0.0
52687.0,STARLINK-3981,PAYLOAD,2023-08-28 06:41:30,15.08833635,0.0001229,53.2183,333.9629,110.7598,249.3526,6.5027e-05,7.47e-06,0.0,0 STARLINK-3981,1 52687U 22053AH  23240.27882908  .00000747  00000-0  65027-4 0  9997,2 52687  53.2183 333.9629 0001229 110.7598 249.3526 15.08833635 71193,6917.9,95.438,540.615,538.915,0.0
52687.0,STARLINK-3981,PAYLOAD,2023-08-28 13:03:03,15.0884502,0.0001183,53.2184,332.7746,92.1883,267.9244,1.4192e-05,-6.2e-07,0.0,0 STARLINK-3981,1 52687U 22053AH  23240.54378481 -.00000062  00000-0  14192-4 0  9991,2 52687  53.2184 332.7746 0001183  92.1883 267.9244 15.08845020 71239,6917.865,95.437,540.548,538.912,0.0
52687.0,STARLINK-3981,PAYLOAD,2023-08-29 12:53:49,15.08846054,0.0001312,53.2183,328.315,94.7922,265.322,9.4673e-05,1.219e-05,0.0,0 STARLINK-3981,1 52687U 22053AH  23241.53738284  .00001219  00000-0  94673-4 0  9998,2 52687  53.2183 328.3150 0001312  94.7922 265.3220 15.08846054 71755,6917.862,95.437,540.635,538.819,0.0
52687.0,STARLINK-3981,PAYLOAD,2023-08-30 06:23:05,15.08834133,0.0001385,53.2184,325.0449,96.3754,263.7396,2.8245e-05,1.62e-06,0.0,0 STARLINK-3981,1 52687U 22053AH  23242.26603279  .00000162  00000-0  28245-4 0  9992,2 52687  53.2184 325.0449 0001385  96.3754 263.7396 15.08834133 71494,6917.898,95.438,540.721,538.805,0.0
52687.0,STARLINK-3981,PAYLOAD,2023-08-30 12:44:37,15.08835423,0.0001326,53.2182,323.855,94.1049,266.0094,1.032e-05,-1.24e-06,0.0,0 STARLINK-3981,1 52687U 22053AH  23242.53099358 -.00000124  00000-0  10320-4 0  9993,2 52687  53.2182 323.8550 0001326  94.1049 266.0094 15.08835423 71909,6917.894,95.438,540.677,538.842,0.0
52687.0,STARLINK-3981,PAYLOAD,2023-08-30 22:16:56,15.08836304,0.0001362,53.2184,322.0711,93.832,266.2828,-2.9449e-05,-7.57e-06,0.0,0 STARLINK-3981,1 52687U 22053AH  23242.92843513 -.00000757  00000-0 -29449-4 0  9991,2 52687  53.2184 322.0711 0001362  93.8320 266.2828 15.08836304 71961,6917.892,95.438,540.699,538.814,0.0
52687.0,STARLINK-3981,PAYLOAD,2023-09-01 14:01:34,15.0883932,0.0001586,53.2176,314.6351,89.6317,270.4857,0.00013068,1.792e-05,0.0,0 STARLINK-3981,1 52687U 22053AH  23244.58443055  .00001792  00000-0  13068-3 0  9999,2 52687  53.2176 314.6351 0001586  89.6317 270.4857 15.08839320 72215,6917.882,95.438,540.845,538.65,0.0
52687.0,STARLINK-3981,PAYLOAD,2023-09-01 17:12:20,15.08844739,0.0002206,53.217,314.0372,81.1115,279.0127,0.00015724,2.215e-05,0.0,0 STARLINK-3981,1 52687U 22053AH  23244.71690964  .00002215  00000-0  15724-3 0  9999,2 52687  53.2170 314.0372 0002206  81.1115 279.0127 15.08844739 71864,6917.866,95.437,541.257,538.205,0.0
52687.0,STARLINK-3981,PAYLOAD,2023-09-01 21:58:30,15.0883509,0.0001193,53.2164,313.1485,80.589,279.5237,4.4356e-05,4.18e-06,0.0,0 STARLINK-3981,1 52687U 22053AH  23244.91563458  .00000418  00000-0  44356-4 0  9995,2 52687  53.2164 313.1485 0001193  80.5890 279.5237 15.08835090 71899,6917.895,95.438,540.586,538.935,0.0
52687.0,STARLINK-3981,PAYLOAD,2023-09-02 10:41:35,15.08843438,9.71e-05,53.2167,310.7695,79.4063,280.7039,5.5801e-05,6.01e-06,0.0,0 STARLINK-3981,1 52687U 22053AH  23245.44554804  .00000601  00000-0  55801-4 0  9990,2 52687  53.2167 310.7695 0000971  79.4063 280.7039 15.08843438 71978,6917.87,95.437,540.407,539.063,0.0
52687.0,STARLINK-3981,PAYLOAD,2023-09-02 21:49:16,15.08864,0.0001291,53.2163,308.6884,75.4431,284.6705,-4.1467e-05,-9.48e-06,0.0,0 STARLINK-3981,1 52687U 22053AH  23245.90922320 -.00000948  00000-0 -41467-4 0  9992,2 52687  53.2163 308.6884 0001291  75.4431 284.6705 15.08864000 72041,6917.807,95.436,540.565,538.779,0.0
52687.0,STARLINK-3981,PAYLOAD,2023-09-03 10:32:21,15.08861363,0.0001745,53.216,306.311,74.5674,285.5511,-0.00012351,-2.254e-05,0.0,0 STARLINK-3981,1 52687U 22053AH  23246.43914319 -.00002254  00000-0 -12351-3 0  9991,2 52687  53.2160 306.3110 0001745  74.5674 285.5511 15.08861363 72121,6917.815,95.436,540.887,538.473,0.0
52687.0,STARLINK-3981,PAYLOAD,2023-09-04 10:23:10,15.08829253,0.0001354,53.2154,301.8476,87.3987,272.716,-5.0079e-05,-1.085e-05,0.0,0 STARLINK-3981,1 52687U 22053AH  23247.43275941 -.00001085  00000-0 -50079-4 0  9994,2 52687  53.2154 301.8476 0001354  87.3987 272.7160 15.08829253 72270,6917.913,95.438,540.715,538.842,0.0
52687.0,STARLINK-3981,PAYLOAD,2023-09-05 03:52:24,15.08834189,0.0001261,53.2167,298.5767,91.5236,268.59,1.5555e-05,-4e-07,0.0,0 STARLINK-3981,1 52687U 22053AH  23248.16139734 -.00000040  00000-0  15555-4 0  9993,2 52687  53.2167 298.5767 0001261  91.5236 268.5900 15.08834189 72381,6917.898,95.438,540.635,538.891,0.0
52687.0,STARLINK-3981,PAYLOAD,2023-09-05 13:24:43,15.08841247,0.0001253,53.2163,296.7922,90.7498,269.3638,4.1264e-05,3.69e-06,0.0,0 STARLINK-3981,1 52687U 22053AH  23248.55883303  .00000369  00000-0  41264-4 0  9993,2 52687  53.2163 296.7922 0001253  90.7498 269.3638 15.08841247 72810,6917.877,95.437,540.608,538.875,0.0
52687.0,STARLINK-3981,PAYLOAD,2023-09-05 19:46:15,15.08842719,0.00013,53.2165,295.6028,91.828,268.2861,5.3293e-05,5.6e-06,0.0,0 STARLINK-3981,1 52687U 22053AH  23248.82379194  .00000560  00000-0  53293-4 0  9999,2 52687  53.2165 295.6028 0001300  91.8280 268.2861 15.08842719 72485,6917.872,95.437,540.636,538.838,0.0
52687.0,STARLINK-3981,PAYLOAD,2023-09-06 02:07:48,15.08833619,0.0001324,53.2158,294.4138,94.545,265.5693,0.00017012,2.42e-05,0.0,0 STARLINK-3981,1 52687U 22053AH  23249.08875619  .00002420  00000-0  17012-3 0  9996,2 52687  53.2158 294.4138 0001324  94.5450 265.5693 15.08833619 72528,6917.9,95.438,540.681,538.849,0.0
52687.0,STARLINK-3981,PAYLOAD,2023-09-06 19:37:02,15.08840904,0.0001317,53.2162,291.1433,93.7881,266.3262,0.00017067,2.429e-05,0.0,0 STARLINK-3981,1 52687U 22053AH  23249.81739449  .00002429  00000-0  17067-3 0  9996,2 52687  53.2162 291.1433 0001317  93.7881 266.3262 15.08840904 73006,6917.878,95.437,540.654,538.832,0.0
52687.0,STARLINK-3981,PAYLOAD,2023-09-07 08:20:08,15.08834383,0.0001432,53.2167,288.7647,93.7341,266.3815,-4.3461e-06,-3.57e-06,0.0,0 STARLINK-3981,1 52687U 22053AH  23250.34732430 -.00000357  00000-0 -43461-5 0  9998,2 52687  53.2167 288.7647 0001432  93.7341 266.3815 15.08834383 72714,6917.898,95.438,540.753,538.772,0.0
52687.0,STARLINK-3981,PAYLOAD,2023-09-08 09:46:17,15.08895346,0.000129,53.2164,284.0072,74.771,285.3425,-0.00067544,-0.00011038,0.0,0 STARLINK-3981,1 52687U 22053AH  23251.40714191 -.00011038  00000-0 -67544-3 0  9994,2 52687  53.2164 284.0072 0001290  74.7710 285.3425 15.08895346 72874,6917.711,95.434,540.469,538.684,0.0
52687.0,STARLINK-3981,PAYLOAD,2023-09-08 14:32:27,15.088411,0.0001389,53.2165,283.1139,87.8876,272.2276,0.00016722,2.374e-05,0.0,0 STARLINK-3981,1 52687U 22053AH  23251.60587384  .00002374  00000-0  16722-3 0  9991,2 52687  53.2165 283.1139 0001389  87.8876 272.2276 15.08841100 72908,6917.877,95.437,540.703,538.781,0.0
52687.0,STARLINK-3981,PAYLOAD,2023-09-09 01:40:10,15.08830479,0.0001361,53.2168,281.0332,83.545,276.5697,5.8539e-05,6.44e-06,0.0,0 STARLINK-3981,1 52687U 22053AH  23252.06956631  .00000644  00000-0  58539-4 0  9998,2 52687  53.2168 281.0332 0001361  83.5450 276.5697 15.08830479 72972,6917.909,95.438,540.716,538.833,0.0
